NORAD_CAT_ID,OBJECT_NAME,OBJECT_TYPE,EPOCH,MEAN_MOTION,ECCENTRICITY,INCLINATION,RA_OF_ASC_NODE,ARG_OF_PERICENTER,MEAN_ANOMALY,BSTAR,MEAN_MOTION_DOT,MEAN_MOTION_DDOT,TLE_LINE0,TLE_LINE1,TLE_LINE2,SEMIMAJOR_AXIS,PERIOD,APOGEE,PERIGEE,DECAYED
54060.0,STARLINK-5169,PAYLOAD,2023-03-24 11:43:39,15.08878733,0.0001468,53.2179,128.2562,98.7522,261.3636,0.00089756,0.00014041,0.0,0 STARLINK-5169,1 54060U 22136K   23083.48864770  .00014041  00000-0  89756-3 0  9997,2 54060  53.2179 128.2562 0001468  98.7522 261.3636 15.08878733 24511,6917.762,95.435,540.643,538.611,0.0
54060.0,STARLINK-5169,PAYLOAD,2023-03-24 19:40:35,15.08830025,0.0001347,53.217,126.7698,103.0289,257.0854,-0.00054066,-8.88e-05,0.0,0 STARLINK-5169,1 54060U 22136K   23083.81985626 -.00008880  00000-0 -54066-3 0  9990,2 54060  53.2170 126.7698 0001347 103.0289 257.0854 15.08830025 24562,6917.911,95.438,540.708,538.844,0.0
54060.0,STARLINK-5169,PAYLOAD,2023-03-25 09:59:05,15.08804071,0.0001567,53.2182,124.098,123.6303,236.4838,-0.00062989,-0.00010289,0.0,0 STARLINK-5169,1 54060U 22136K   23084.41603710 -.00010289  00000-0 -62989-3 0  9997,2 54060  53.2182 124.0980 0001567 123.6303 236.4838 15.08804071 24654,6917.99,95.44,540.939,538.771,0.0
54060.0,STARLINK-5169,PAYLOAD,2023-03-25 19:31:25,15.08810125,0.0001218,53.216,122.3089,109.079,251.0334,0.00014833,2.072e-05,0.0,0 STARLINK-5169,1 54060U 22136K   23084.81348438  .00002072  00000-0  14833-3 0  9998,2 54060  53.2160 122.3089 0001218 109.0790 251.0334 15.08810125 24237,6917.972,95.439,540.679,538.994,0.0
54060.0,STARLINK-5169,PAYLOAD,2023-03-26 11:25:17,15.08842825,0.0001091,53.2164,119.3337,113.4967,246.614,0.0015278,0.00024112,0.0,0 STARLINK-5169,1 54060U 22136K   23085.47589262  .00024112  00000-0  15278-2 0  9995,2 54060  53.2164 119.3337 0001091 113.4967 246.6140 15.08842825 24818,6917.872,95.437,540.491,538.982,0.0
54060.0,STARLINK-5169,PAYLOAD,2023-03-26 19:22:12,15.08856136,0.0001092,53.2166,117.8467,111.1129,248.998,0.0014574,0.00022993,0.0,0 STARLINK-5169,1 54060U 22136K   23085.80709074  .00022993  00000-0  14574-2 0  9990,2 54060  53.2166 117.8467 0001092 111.1129 248.9980 15.08856136 24382,6917.831,95.437,540.451,538.941,0.0
54060.0,STARLINK-5169,PAYLOAD,2023-03-27 11:16:02,15.0888374,0.0001103,53.2167,114.8733,108.6158,251.4954,0.0014122,0.00022286,0.0,0 STARLINK-5169,1 54060U 22136K   23086.46947699  .00022286  00000-0  14122-2 0  9994,2 54060  53.2167 114.8733 0001103 108.6158 251.4954 15.08883740 24484,6917.747,95.435,540.375,538.849,0.0
54060.0,STARLINK-5169,PAYLOAD,2023-03-27 19:12:58,15.08862968,0.000133,53.2168,113.3863,92.3647,267.7497,0.00076938,0.00011986,0.0,0 STARLINK-5169,1 54060U 22136K   23086.80067811  .00011986  00000-0  76938-3 0  9990,2 54060  53.2168 113.3863 0001330  92.3647 267.7497 15.08862968 25018,6917.81,95.436,540.595,538.755,0.0
54060.0,STARLINK-5169,PAYLOAD,2023-03-28 06:20:40,15.08843942,0.0001163,53.2171,111.3055,96.4972,263.6152,0.00068687,0.00010662,0.0,0 STARLINK-5169,1 54060U 22136K   23087.26435821  .00010662  00000-0  68687-3 0  9993,2 54060  53.2171 111.3055 0001163  96.4972 263.6152 15.08843942 25084,6917.868,95.437,540.538,538.929,0.0
54060.0,STARLINK-5169,PAYLOAD,2023-03-28 12:42:12,15.0885314,0.0001412,53.2172,110.1147,104.2803,255.8346,0.00043867,6.703e-05,0.0,0 STARLINK-5169,1 54060U 22136K   23087.52931578  .00006703  00000-0  43867-3 0  9996,2 54060  53.2172 110.1147 0001412 104.2803 255.8346 15.08853140 24642,6917.84,95.437,540.682,538.728,0.0
54060.0,STARLINK-5169,PAYLOAD,2023-03-28 19:03:45,15.08845869,0.000179,53.219,108.9267,69.9784,290.14,0.00054546,8.405e-05,0.0,0 STARLINK-5169,1 54060U 22136K   23087.79427966  .00008405  00000-0  54546-3 0  9993,2 54060  53.2190 108.9267 0001790  69.9784 290.1400 15.08845869 25164,6917.862,95.437,540.966,538.489,0.0
54060.0,STARLINK-5169,PAYLOAD,2023-03-29 12:32:59,15.08862648,0.0001187,53.2183,105.6548,89.2456,270.8672,0.00035677,5.398e-05,0.0,0 STARLINK-5169,1 54060U 22136K   23088.52290757  .00005398  00000-0  35677-3 0  9993,2 54060  53.2183 105.6548 0001187  89.2456 270.8672 15.08862648 24791,6917.811,95.436,540.497,538.855,0.0
54060.0,STARLINK-5169,PAYLOAD,2023-03-30 01:16:05,15.0884146,0.0001267,53.2181,103.2775,88.1664,271.9474,6.7175e-05,7.81e-06,0.0,0 STARLINK-5169,1 54060U 22136K   23089.05283579  .00000781  00000-0  67175-4 0  9996,2 54060  53.2181 103.2775 0001267  88.1664 271.9474 15.08841460 25357,6917.876,95.437,540.617,538.864,0.0
54060.0,STARLINK-5169,PAYLOAD,2023-03-30 12:23:46,15.08865822,0.0001255,53.2189,101.1941,89.3616,270.752,0.00068934,0.00010708,0.0,0 STARLINK-5169,1 54060U 22136K   23089.51650612  .00010708  00000-0  68934-3 0  9996,2 54060  53.2189 101.1941 0001255  89.3616 270.7520 15.08865822 25429,6917.801,95.436,540.535,538.798,0.0
54060.0,STARLINK-5169,PAYLOAD,2023-03-31 01:06:50,15.0886434,0.0001584,53.2187,98.8165,87.7234,272.394,0.00046463,7.119e-05,0.0,0 STARLINK-5169,1 54060U 22136K   23090.04642193  .00007119  00000-0  46463-3 0  9996,2 54060  53.2187  98.8165 0001584  87.7234 272.3940 15.08864340 25507,6917.806,95.436,540.767,538.575,0.0
54060.0,STARLINK-5169,PAYLOAD,2023-03-31 17:00:41,15.08840809,0.0001318,53.2188,95.8435,96.9012,263.213,-0.00071287,-0.00011615,0.0,0 STARLINK-5169,1 54060U 22136K   23090.70881788 -.00011615  00000-0 -71287-3 0  9994,2 54060  53.2188  95.8435 0001318  96.9012 263.2130 15.08840809 25601,6917.878,95.438,540.655,538.831,0.0
54060.0,STARLINK-5169,PAYLOAD,2023-04-01 04:08:24,15.08820109,0.0001374,53.2193,93.7637,100.8477,259.267,-0.00081227,-0.00013185,0.0,0 STARLINK-5169,1 54060U 22136K   23091.17250511 -.00013185  00000-0 -81227-3 0  9999,2 54060  53.2193  93.7637 0001374 100.8477 259.2670 15.08820109 25672,6917.941,95.439,540.757,538.856,0.0
54060.0,STARLINK-5169,PAYLOAD,2023-04-01 10:29:57,15.0881984,0.0001283,53.2188,92.5752,103.6526,256.4609,-0.00045396,-7.501e-05,0.0,0 STARLINK-5169,1 54060U 22136K   23091.43747097 -.00007501  00000-0 -45396-3 0  9990,2 54060  53.2188  92.5752 0001283 103.6526 256.4609 15.08819840 25239,6917.942,95.439,540.695,538.919,0.0
54060.0,STARLINK-5169,PAYLOAD,2023-04-01 16:51:30,15.0882293,0.0001139,53.219,91.3857,99.6223,260.4898,-9.38e-06,-4.37e-06,0.0,0 STARLINK-5169,1 54060U 22136K   23091.70243457 -.00000437  00000-0 -93800-5 0  9997,2 54060  53.2190  91.3857 0001139  99.6223 260.4898 15.08822930 25276,6917.933,95.439,540.586,539.01,0.0
54060.0,STARLINK-5169,PAYLOAD,2023-04-02 07:09:59,15.08843804,0.0001059,53.2179,88.7065,85.6056,274.5057,0.0011827,0.00018587,0.0,0 STARLINK-5169,1 54060U 22136K   23092.29859981  .00018587  00000-0  11827-2 0  9996,2 54060  53.2179  88.7065 0001059  85.6056 274.5057 15.08843804 25843,6917.869,95.437,540.466,539.001,0.0
54060.0,STARLINK-5169,PAYLOAD,2023-04-02 11:56:08,15.08852051,0.0001054,53.2175,87.8142,82.9135,277.1977,0.0012395,0.000195,0.0,0 STARLINK-5169,1 54060U 22136K   23092.49731874  .00019500  00000-0  12395-2 0  9995,2 54060  53.2175  87.8142 0001054  82.9135 277.1977 15.08852051 25392,6917.844,95.437,540.438,538.979,0.0
54060.0,STARLINK-5169,PAYLOAD,2023-04-03 05:25:23,15.08853396,0.0001333,53.2178,84.5435,71.4302,288.6835,0.00089799,0.00014038,0.0,0 STARLINK-5169,1 54060U 22136K   23093.22596111  .00014038  00000-0  89799-3 0  9994,2 54060  53.2178  84.5435 0001333  71.4302 288.6835 15.08853396 25981,6917.839,95.437,540.627,538.782,0.0
54060.0,STARLINK-5169,PAYLOAD,2023-04-03 11:46:55,15.08857822,0.0001379,53.2178,83.3537,73.0492,287.0651,0.00093409,0.00014617,0.0,0 STARLINK-5169,1 54060U 22136K   23093.49091922  .00014617  00000-0  93409-3 0  9999,2 54060  53.2178  83.3537 0001379  73.0492 287.0651 15.08857822 25548,6917.826,95.436,540.645,538.737,0.0
54060.0,STARLINK-5169,PAYLOAD,2023-04-03 16:33:04,15.0884251,9.5e-05,53.2182,82.4606,103.0268,257.0831,0.00022724,3.331e-05,0.0,0 STARLINK-5169,1 54060U 22136K   23093.68963733  .00003331  00000-0  22724-3 0  9991,2 54060  53.2182  82.4606 0000950 103.0268 257.0831 15.08842510 26051,6917.873,95.437,540.395,539.081,0.0
54060.0,STARLINK-5169,PAYLOAD,2023-04-04 05:16:09,15.08857403,0.0001082,53.2175,80.0837,90.416,269.6956,0.00062608,9.695e-05,0.0,0 STARLINK-5169,1 54060U 22136K   23094.21955671  .00009695  00000-0  62608-3 0  9997,2 54060  53.2175  80.0837 0001082  90.4160 269.6956 15.08857403 25659,6917.827,95.436,540.441,538.944,0.0
54060.0,STARLINK-5169,PAYLOAD,2023-04-05 03:31:33,15.08842927,0.0001116,53.2183,75.918,109.9558,250.1554,0.00021532,3.141e-05,0.0,0 STARLINK-5169,1 54060U 22136K   23095.14691907  .00003141  00000-0  21532-3 0  9990,2 54060  53.2183  75.9180 0001116 109.9558 250.1554 15.08842927 26270,6917.871,95.437,540.508,538.964,0.0
54060.0,STARLINK-5169,PAYLOAD,2023-04-05 09:53:06,15.08848727,0.0001155,53.2188,74.7285,111.7627,248.3489,0.00028683,4.281e-05,0.0,0 STARLINK-5169,1 54060U 22136K   23095.41187711  .00004281  00000-0  28683-3 0  9993,2 54060  53.2188  74.7285 0001155 111.7627 248.3489 15.08848727 25830,6917.854,95.437,540.518,538.92,0.0
54060.0,STARLINK-5169,PAYLOAD,2023-04-05 16:14:39,15.08842277,0.0001398,53.2196,73.543,74.302,285.8127,0.00015683,2.209e-05,0.0,0 STARLINK-5169,1 54060U 22136K   23095.67684068  .00002209  00000-0  15683-3 0  9992,2 54060  53.2196  73.5430 0001398  74.3020 285.8127 15.08842277 25871,6917.873,95.437,540.706,538.771,0.0
54060.0,STARLINK-5169,PAYLOAD,2023-04-06 08:08:30,15.08849927,0.0001287,53.2181,70.566,97.3644,262.7494,0.0003762,5.706e-05,0.0,0 STARLINK-5169,1 54060U 22136K   23096.33923745  .00005706  00000-0  37620-3 0  9994,2 54060  53.2181  70.5660 0001287  97.3644 262.7494 15.08849927 26456,6917.85,95.437,540.605,538.825,0.0
54060.0,STARLINK-5169,PAYLOAD,2023-04-06 09:43:53,15.08855186,0.0001342,53.2194,70.2705,92.6307,267.4839,0.00050295,7.729e-05,0.0,0 STARLINK-5169,1 54060U 22136K   23096.40547615  .00007729  00000-0  50295-3 0  9990,2 54060  53.2194  70.2705 0001342  92.6307 267.4839 15.08855186 25989,6917.834,95.437,540.627,538.771,0.0
